CCSDS_OMM_VERS = 2.0
CREATION_DATE  = 
ORIGINATOR     = 

OBJECT_NAME    = STARLINK-35743
OBJECT_ID      = 2025-268X
CENTER_NAME    = EARTH
REF_FRAME      = TEME
TIME_SYSTEM    = UTC
MEAN_ELEMENT_THEORY = SGP/SGP4

EPOCH          = 2025-12-16T15:27:40.171680
MEAN_MOTION    = 15.50650495
ECCENTRICITY   = .00009315
INCLINATION    = 43.0001
RA_OF_ASC_NODE = 98.2641
ARG_OF_PERICENTER = 248.4548
MEAN_ANOMALY   = 111.6213

EPHEMERIS_TYPE = 0
CLASSIFICATION_TYPE = U
NORAD_CAT_ID   = 66578
ELEMENT_SET_NO = 999
REV_AT_EPOCH   = 523
BSTAR          = .10172314E-2
MEAN_MOTION_DOT = .59945E-3
MEAN_MOTION_DDOT = 0

CCSDS_OMM_VERS = 2.0
CREATION_DATE  = 
ORIGINATOR     = 

OBJECT_NAME    = STARLINK-35868
OBJECT_ID      = 2025-268Y
CENTER_NAME    = EARTH
REF_FRAME      = TEME
TIME_SYSTEM    = UTC
MEAN_ELEMENT_THEORY = SGP/SGP4

EPOCH          = 2025-12-16T15:27:10.423296
MEAN_MOTION    = 15.50637405
ECCENTRICITY   = .00006528
INCLINATION    = 43.0000
RA_OF_ASC_NODE = 98.2605
ARG_OF_PERICENTER = 323.6291
MEAN_ANOMALY   = 36.4525

EPHEMERIS_TYPE = 0
CLASSIFICATION_TYPE = U
NORAD_CAT_ID   = 66579
ELEMENT_SET_NO = 999
REV_AT_EPOCH   = 523
BSTAR          = .11153132E-2
MEAN_MOTION_DOT = .65776E-3
MEAN_MOTION_DDOT = 0

CCSDS_OMM_VERS = 2.0
CREATION_DATE  = 
ORIGINATOR     = 

OBJECT_NAME    = STARLINK-35872
OBJECT_ID      = 2025-268Z
CENTER_NAME    = EARTH
REF_FRAME      = TEME
TIME_SYSTEM    = UTC
MEAN_ELEMENT_THEORY = SGP/SGP4

EPOCH          = 2025-12-16T15:26:40.036416
MEAN_MOTION    = 15.50584522
ECCENTRICITY   = .00020412
INCLINATION    = 43.0002
RA_OF_ASC_NODE = 98.2574
ARG_OF_PERICENTER = 275.5012
MEAN_ANOMALY   = 84.5615

EPHEMERIS_TYPE = 0
CLASSIFICATION_TYPE = U
NORAD_CAT_ID   = 66580
ELEMENT_SET_NO = 999
REV_AT_EPOCH   = 523
BSTAR          = .96666308E-3
MEAN_MOTION_DOT = .56793E-3
MEAN_MOTION_DDOT = 0

CCSDS_OMM_VERS = 2.0
CREATION_DATE  = 
ORIGINATOR     = 

OBJECT_NAME    = STARLINK-35744
OBJECT_ID      = 2025-268AA
CENTER_NAME    = EARTH
REF_FRAME      = TEME
TIME_SYSTEM    = UTC
MEAN_ELEMENT_THEORY = SGP/SGP4

EPOCH          = 2025-12-16T15:26:10.599936
MEAN_MOTION    = 15.50613562
ECCENTRICITY   = .00021018
INCLINATION    = 43.0010
RA_OF_ASC_NODE = 98.2550
ARG_OF_PERICENTER = 273.5265
MEAN_ANOMALY   = 86.5355

EPHEMERIS_TYPE = 0
CLASSIFICATION_TYPE = U
NORAD_CAT_ID   = 66581
ELEMENT_SET_NO = 999
REV_AT_EPOCH   = 523
BSTAR          = .10897857E-2
MEAN_MOTION_DOT = .64198E-3
MEAN_MOTION_DDOT = 0

CCSDS_OMM_VERS = 2.0
CREATION_DATE  = 
ORIGINATOR     = 

OBJECT_NAME    = STARLINK-35746
OBJECT_ID      = 2025-268AB
CENTER_NAME    = EARTH
REF_FRAME      = TEME
TIME_SYSTEM    = UTC
MEAN_ELEMENT_THEORY = SGP/SGP4

EPOCH          = 2025-12-16T15:25:40.461888
MEAN_MOTION    = 15.50594828
ECCENTRICITY   = .00019721
INCLINATION    = 43.0010
RA_OF_ASC_NODE = 98.2522
ARG_OF_PERICENTER = 274.4376
MEAN_ANOMALY   = 85.6259

EPHEMERIS_TYPE = 0
CLASSIFICATION_TYPE = U
NORAD_CAT_ID   = 66582
ELEMENT_SET_NO = 999
REV_AT_EPOCH   = 523
BSTAR          = .11306109E-2
MEAN_MOTION_DOT = .66591E-3
MEAN_MOTION_DDOT = 0

CCSDS_OMM_VERS = 2.0
CREATION_DATE  = 
ORIGINATOR     = 

OBJECT_NAME    = STARLINK-35941
OBJECT_ID      = 2025-268AC
CENTER_NAME    = EARTH
REF_FRAME      = TEME
TIME_SYSTEM    = UTC
MEAN_ELEMENT_THEORY = SGP/SGP4

EPOCH          = 2025-12-16T15:25:11.236224
MEAN_MOTION    = 15.50654551
ECCENTRICITY   = .00024576
INCLINATION    = 43.0005
RA_OF_ASC_NODE = 98.2493
ARG_OF_PERICENTER = 262.9424
MEAN_ANOMALY   = 97.1157

EPHEMERIS_TYPE = 0
CLASSIFICATION_TYPE = U
NORAD_CAT_ID   = 66583
ELEMENT_SET_NO = 999
REV_AT_EPOCH   = 523
BSTAR          = .14116278E-2
MEAN_MOTION_DOT = .8359E-3
MEAN_MOTION_DDOT = 0

CCSDS_OMM_VERS = 2.0
CREATION_DATE  = 
ORIGINATOR     = 

OBJECT_NAME    = STARLINK-35939
OBJECT_ID      = 2025-268AD
CENTER_NAME    = EARTH
REF_FRAME      = TEME
TIME_SYSTEM    = UTC
MEAN_ELEMENT_THEORY = SGP/SGP4

EPOCH          = 2025-12-16T15:24:41.557824
MEAN_MOTION    = 15.50656424
ECCENTRICITY   = .00028244
INCLINATION    = 43.0008
RA_OF_ASC_NODE = 98.2468
ARG_OF_PERICENTER = 272.3389
MEAN_ANOMALY   = 87.7148

EPHEMERIS_TYPE = 0
CLASSIFICATION_TYPE = U
NORAD_CAT_ID   = 66584
ELEMENT_SET_NO = 999
REV_AT_EPOCH   = 523
BSTAR          = .14771417E-2
MEAN_MOTION_DOT = .87538E-3
MEAN_MOTION_DDOT = 0

CCSDS_OMM_VERS = 2.0
CREATION_DATE  = 
ORIGINATOR     = 

OBJECT_NAME    = STARLINK-35963
OBJECT_ID      = 2025-268AE
CENTER_NAME    = EARTH
REF_FRAME      = TEME
TIME_SYSTEM    = UTC
MEAN_ELEMENT_THEORY = SGP/SGP4

EPOCH          = 2025-12-16T15:24:12.070368
MEAN_MOTION    = 15.50640260
ECCENTRICITY   = .00022722
INCLINATION    = 43.0003
RA_OF_ASC_NODE = 98.2445
ARG_OF_PERICENTER = 268.3162
MEAN_ANOMALY   = 91.7438

EPHEMERIS_TYPE = 0
CLASSIFICATION_TYPE = U
NORAD_CAT_ID   = 66585
ELEMENT_SET_NO = 999
REV_AT_EPOCH   = 523
BSTAR          = .12071955E-2
MEAN_MOTION_DOT = .71285E-3
MEAN_MOTION_DDOT = 0

CCSDS_OMM_VERS = 2.0
CREATION_DATE  = 
ORIGINATOR     = 

OBJECT_NAME    = TJS-21
OBJECT_ID      = 2025-269A
CENTER_NAME    = EARTH
REF_FRAME      = TEME
TIME_SYSTEM    = UTC
MEAN_ELEMENT_THEORY = SGP/SGP4

EPOCH          = 2025-12-10T17:31:22.184832
MEAN_MOTION    = 2.00567425
ECCENTRICITY   = .6805766
INCLINATION    = 63.2690
RA_OF_ASC_NODE = 162.5612
ARG_OF_PERICENTER = 269.7806
MEAN_ANOMALY   = 18.6565

EPHEMERIS_TYPE = 0
CLASSIFICATION_TYPE = U
NORAD_CAT_ID   = 66586
ELEMENT_SET_NO = 999
REV_AT_EPOCH   = 39
BSTAR          = -.44965385E-1
MEAN_MOTION_DOT = .1083E-4
MEAN_MOTION_DDOT = 0

CCSDS_OMM_VERS = 2.0
CREATION_DATE  = 
ORIGINATOR     = 

OBJECT_NAME    = CZ-3B R/B
OBJECT_ID      = 2025-269B
CENTER_NAME    = EARTH
REF_FRAME      = TEME
TIME_SYSTEM    = UTC
MEAN_ELEMENT_THEORY = SGP/SGP4

EPOCH          = 2025-12-12T18:47:24.789120
MEAN_MOTION    = 2.03336189
ECCENTRICITY   = .7518951
INCLINATION    = 51.3470
RA_OF_ASC_NODE = 169.6347
ARG_OF_PERICENTER = 228.7177
MEAN_ANOMALY   = 37.1847

EPHEMERIS_TYPE = 0
CLASSIFICATION_TYPE = U
NORAD_CAT_ID   = 66587
ELEMENT_SET_NO = 999
REV_AT_EPOCH   = 45
BSTAR          = .96662605E-3
MEAN_MOTION_DOT = .67576E-3
MEAN_MOTION_DDOT = .109445E-5

CCSDS_OMM_VERS = 2.0
CREATION_DATE  = 
ORIGINATOR     = 

OBJECT_NAME    = STARLINK-36076
OBJECT_ID      = 2025-270A
CENTER_NAME    = EARTH
REF_FRAME      = TEME
TIME_SYSTEM    = UTC
MEAN_ELEMENT_THEORY = SGP/SGP4

EPOCH          = 2025-12-16T22:00:03.000096
MEAN_MOTION    = 15.40670960
ECCENTRICITY   = .00019547
INCLINATION    = 42.9994
RA_OF_ASC_NODE = 168.7121
ARG_OF_PERICENTER = 244.7100
MEAN_ANOMALY   = 282.5863

EPHEMERIS_TYPE = 0
CLASSIFICATION_TYPE = U
NORAD_CAT_ID   = 66588
ELEMENT_SET_NO = 999
REV_AT_EPOCH   = 507
BSTAR          = .22988968E-2
MEAN_MOTION_DOT = .96863E-3
MEAN_MOTION_DDOT = 0

CCSDS_OMM_VERS = 2.0
CREATION_DATE  = 
ORIGINATOR     = 

OBJECT_NAME    = STARLINK-35447
OBJECT_ID      = 2025-270B
CENTER_NAME    = EARTH
REF_FRAME      = TEME
TIME_SYSTEM    = UTC
MEAN_ELEMENT_THEORY = SGP/SGP4

EPOCH          = 2025-12-16T22:00:03.000096
MEAN_MOTION    = 15.40661746
ECCENTRICITY   = .00014059
INCLINATION    = 42.9991
RA_OF_ASC_NODE = 168.4692
ARG_OF_PERICENTER = 295.8514
MEAN_ANOMALY   = 330.9161

EPHEMERIS_TYPE = 0
CLASSIFICATION_TYPE = U
NORAD_CAT_ID   = 66589
ELEMENT_SET_NO = 999
REV_AT_EPOCH   = 517
BSTAR          = .17919554E-2
MEAN_MOTION_DOT = .75196E-3
MEAN_MOTION_DDOT = 0

