STARLINK-35743          
1 66578U 25268X   25350.64421495  .00059945  00000+0  10172-2 0  9999
2 66578  43.0001  98.2641 0000931 248.4548 111.6213 15.50650495  5235
STARLINK-35868          
1 66579U 25268Y   25350.64387064  .00065776  00000+0  11153-2 0  9992
2 66579  43.0000  98.2605 0000652 323.6291  36.4525 15.50637405  5232
STARLINK-35872          
1 66580U 25268Z   25350.64351894  .00056793  00000+0  96666-3 0  9998
2 66580  43.0002  98.2574 0002041 275.5012  84.5615 15.50584522  5236
STARLINK-35744          
1 66581U 25268AA  25350.64317824  .00064198  00000+0  10898-2 0  9994
2 66581  43.0010  98.2550 0002101 273.5265  86.5355 15.50613562  5235
STARLINK-35746          
1 66582U 25268AB  25350.64282942  .00066591  00000+0  11306-2 0  9991
2 66582  43.0010  98.2522 0001972 274.4376  85.6259 15.50594828  5239
STARLINK-35941          
1 66583U 25268AC  25350.64249116  .00083590  00000+0  14116-2 0  9998
2 66583  43.0005  98.2493 0002457 262.9424  97.1157 15.50654551  5231
STARLINK-35939          
1 66584U 25268AD  25350.64214766  .00087538  00000+0  14771-2 0  9995
2 66584  43.0008  98.2468 0002824 272.3389  87.7148 15.50656424  5236
STARLINK-35963          
1 66585U 25268AE  25350.64180637  .00071285  00000+0  12072-2 0  9999
2 66585  43.0003  98.2445 0002272 268.3162  91.7438 15.50640260  5236
TJS-21                  
1 66586U 25269A   25344.73011788  .00001083  00000+0 -44965-1 0  9999
2 66586  63.2690 162.5612 6805766 269.7806  18.6565  2.00567425   392
CZ-3B R/B               
1 66587U 25269B   25346.78292580  .00067576  10944-5  96663-3 0  9994
2 66587  51.3470 169.6347 7518951 228.7177  37.1847  2.03336189   454
STARLINK-36076          
1 66588U 25270A   25350.91670139  .00096863  00000+0  22989-2 0  9993
2 66588  42.9994 168.7121 0001954 244.7100 282.5863 15.40670960  5079
STARLINK-35447          
1 66589U 25270B   25350.91670139  .00075196  00000+0  17920-2 0  9999
2 66589  42.9991 168.4692 0001405 295.8514 330.9161 15.40661746  5176
